OBJECT_NAME,OBJECT_ID,EPOCH,MEAN_MOTION,ECCENTRICITY,INCLINATION,RA_OF_ASC_NODE,ARG_OF_PERICENTER,MEAN_ANOMALY,EPHEMERIS_TYPE,CLASSIFICATION_TYPE,NORAD_CAT_ID,ELEMENT_SET_NO,REV_AT_EPOCH,BSTAR,MEAN_MOTION_DOT,MEAN_MOTION_DDOT
STARLINK-11505 [DTC],2024-254H,2025-03-26T04:42:38.980800,15.70828266,.0002429,43.0062,163.4627,274.3216,85.7374,0,U,62469,999,1458,.82254E-6,-.344E-5,0
STARLINK-11497 [DTC],2024-254J,2025-03-26T05:05:34.410048,15.70843825,.0000996,43.0018,163.5898,266.5351,93.5403,0,U,62470,999,1459,-.1859E-5,-.686E-5,0
STARLINK-11477 [DTC],2024-254K,2025-03-26T04:59:14.563680,15.70835608,.0001071,43.0006,163.5517,256.1523,103.9226,0,U,62471,999,1458,.17902E-5,-.218E-5,0
STARLINK-11500 [DTC],2024-254L,2025-03-25T22:21:06.730560,15.70831209,.0001924,43.0033,164.9050,253.6059,106.4597,0,U,62472,999,1402,.64841E-5,.383E-5,0
STARLINK-11464 [DTC],2024-254M,2025-03-24T15:04:10.738848,15.70878771,.0001439,43.0019,173.2122,252.2642,107.8068,0,U,62473,999,1439,.11351E-4,.101E-4,0
STARLINK-11502 [DTC],2024-254N,2025-03-26T04:50:16.905984,15.70838328,.0001447,43.0003,163.5014,140.6819,219.4154,0,U,62474,999,1459,.24801E-5,-.13E-5,0
STARLINK-32657,2024-254P,2025-03-25T23:24:51.049440,15.27552268,.0001078,43.0044,189.0168,259.9976,100.0754,0,U,62475,999,1412,.7411E-4,.1776E-4,0
STARLINK-32734,2024-254Q,2025-03-25T23:58:49.232352,15.27585230,.0000455,43.0015,185.7341,268.2611,91.8188,0,U,62476,999,1432,-.60689E-5,-.429E-5,0
STARLINK-32733,2024-254R,2025-03-25T23:01:24.824640,15.27628483,.000191,43.0012,185.4271,259.9750,100.0886,0,U,62477,999,1432,-.56119E-4,-.1809E-4,0
STARLINK-32707,2024-254S,2025-03-25T15:53:16.132128,15.27567422,.0001294,43.0038,187.4949,252.0533,108.0177,0,U,62478,999,1427,-.76399E-4,-.2363E-4,0
STARLINK-32705,2024-254T,2025-03-25T15:18:18.847296,15.40679458,.0001738,43.0052,185.5918,286.5162,73.5504,0,U,62479,999,1413,.19219E-3,.7727E-4,0
STARLINK-32743,2024-254U,2025-03-25T10:17:06.280224,15.27549637,.0000521,42.9970,188.3252,169.5842,190.5021,0,U,62480,999,1424,.30915E-3,.8247E-4,0
STARLINK-32753,2024-254V,2025-03-25T23:12:31.956192,15.27645385,.0001805,43.0062,185.4852,252.3582,107.7072,0,U,62481,999,1432,-.40156E-3,-.11318E-3,0
STARLINK-32699,2024-254W,2025-03-25T23:15:32.972832,15.27600884,.00008,42.9978,188.9641,240.3120,119.7652,0,U,62482,999,1412,.86196E-4,.2112E-4,0
THURAYA-4,2025-001A,2025-03-23T06:18:06.040224,1.04168492,.4809252,4.4604,309.3091,191.8146,170.9330,0,U,62483,999,75,0,-.191E-5,0
SHIJIAN-25 (SJ-25),2025-002A,2025-03-25T23:05:17.631168,1.00281182,.0059127,10.3420,43.1413,182.6822,63.8644,0,U,62485,999,87,0,-.365E-5,0
STARLINK-32713,2025-003A,2025-03-25T17:46:44.656896,15.27568525,.0000717,42.9973,99.7156,281.4983,78.5788,0,U,62487,999,1328,.65752E-4,.1547E-4,0
STARLINK-32732,2025-003B,2025-03-26T02:23:33.605664,15.27584041,.0001374,43.0023,97.2404,259.2956,100.7741,0,U,62488,999,1320,.64952E-4,.1526E-4,0
STARLINK-32328,2025-003C,2025-03-26T01:59:43.807488,15.27564497,.0000768,43.0031,97.9761,273.3064,86.7700,0,U,62489,999,1335,.68379E-4,.1619E-4,0
STARLINK-32332,2025-003D,2025-03-26T01:43:03.957312,15.27579677,.0000496,42.9964,97.8880,254.6175,105.4622,0,U,62490,999,1334,-.72133E-5,-.46E-5,0
STARLINK-32717,2025-003E,2025-03-26T02:49:29.093376,15.27560889,.0000577,42.9991,97.3834,303.4085,56.6711,0,U,62491,999,1336,-.10491E-3,-.3146E-4,0
STARLINK-32757,2025-003F,2025-03-26T01:52:19.716672,15.27563806,.000016,43.0017,97.9333,228.3844,131.6994,0,U,62492,999,1318,.66791E-4,.1576E-4,0
STARLINK-32731,2025-003G,2025-03-26T03:44:59.486784,15.27574024,.0000983,43.0031,97.6652,233.4114,126.6648,0,U,62493,999,1336,.4551E-4,.99E-5,0
STARLINK-32694,2025-003H,2025-03-26T01:00:30.598848,15.27584188,.0000365,42.9993,97.6671,246.5316,113.5497,0,U,62494,999,1335,.27318E-3,.7264E-4,0
STARLINK-32708,2025-003J,2025-03-25T17:55:58.933632,15.27581493,.000093,42.9996,99.7537,286.6064,73.4686,0,U,62495,999,1318,.14951E-3,.3855E-4,0
STARLINK-32718,2025-003K,2025-03-25T10:47:31.737696,15.27591287,.0001012,43.0018,100.9667,257.5711,102.5028,0,U,62496,999,1314,.17006E-3,.4422E-4,0
STARLINK-32729,2025-003L,2025-03-26T01:06:03.746016,15.27570189,.0000581,43.0003,97.6868,275.0407,85.0378,0,U,62497,999,1335,.60477E-4,.1402E-4,0
STARLINK-32739,2025-003M,2025-03-26T01:28:15.859488,15.27590424,.0000666,43.0000,97.8083,62.8705,297.2214,0,U,62498,999,1330,.25611E-3,.6794E-4,0
STARLINK-32714,2025-003N,2025-03-26T02:08:58.873920,15.27567481,.0000929,43.0030,98.0284,224.8702,135.2075,0,U,62499,999,1335,.26985E-4,.48E-5,0
STARLINK-32685,2025-003P,2025-03-25T21:15:24.304608,15.27575117,.0000214,43.0000,99.0765,20.8702,339.2159,0,U,62500,999,1327,.563E-4,.1288E-4,0
STARLINK-32691,2025-003Q,2025-03-26T01:26:25.146528,15.27573665,.0000908,42.9999,97.7934,144.9766,215.1145,0,U,62501,999,1333,.11068E-3,.2784E-4,0
STARLINK-32788,2025-003R,2025-03-26T01:20:51.585504,15.27583230,.0000436,43.0025,97.7735,199.0361,161.0474,0,U,62502,999,1309,.18321E-3,.4783E-4,0
STARLINK-32768,2025-003S,2025-03-26T00:56:48.654528,15.27575742,.0000997,43.0017,97.6416,219.7022,140.3757,0,U,62503,999,1323,.25457E-5,-.192E-5,0
STARLINK-32792,2025-003T,2025-03-26T02:18:01.034784,15.27579157,.0000799,43.0035,97.2072,272.2159,87.8601,0,U,62504,999,1319,-.10734E-4,-.557E-5,0
STARLINK-32725,2025-003U,2025-03-26T02:19:51.694176,15.27577339,.0001162,43.0019,97.2033,264.1104,95.9616,0,U,62505,999,1324,.32697E-4,.638E-5,0
STARLINK-32681,2025-003V,2025-03-26T04:00:01.999584,15.28381811,.0001006,42.9998,78.6897,263.2489,288.4529,0,U,62506,999,1357,.94051E-3,.26353E-3,0
STARLINK-32679,2025-003W,2025-03-26T02:14:31.376544,15.27575525,.0000722,43.0037,98.0135,282.9544,77.1227,0,U,62507,999,1335,-.47662E-5,-.393E-5,0
STARLINK-32749,2025-003X,2025-03-25T17:20:49.983936,15.27570014,.0000589,42.9984,99.5653,250.6048,109.4740,0,U,62508,999,1318,.24835E-4,.422E-5,0
STARLINK-32744,2025-003Y,2025-03-26T02:03:25.495200,15.27575493,.0000622,43.0002,98.0003,249.5844,110.4941,0,U,62509,999,1323,.6548E-4,.154E-4,0
STARLINK-32701,2025-003Z,2025-03-26T01:31:59.372832,15.27565153,.0001758,43.0005,97.8255,279.2245,80.8408,0,U,62510,999,1323,.71648E-4,.1709E-4,0
STARLINK-11452 [DTC],2025-004A,2025-03-26T02:15:03.296160,15.70842519,.0001586,43.0010,11.9395,282.1964,77.8726,0,U,62511,999,1330,.25642E-4,.2843E-4,0
STARLINK-11443 [DTC],2025-004B,2025-03-26T01:29:22.346880,15.70846280,.0002039,42.9943,12.5737,310.2532,49.8157,0,U,62512,999,1328,.3523E-5,.3E-7,0
STARLINK-11440 [DTC],2025-004C,2025-03-25T20:31:46.430400,15.70833732,.0001407,42.9982,13.6008,285.3257,74.7454,0,U,62513,999,1325,-.18621E-4,-.2836E-4,0
STARLINK-11514 [DTC],2025-004D,2025-03-25T20:02:30.136992,15.70839018,.0001312,43.0003,13.4392,284.5396,75.5326,0,U,62514,999,1234,-.23158E-4,-.3418E-4,0
STARLINK-11508 [DTC],2025-004E,2025-03-26T03:31:19.450560,15.70845385,.0001242,42.9995,11.4707,288.4207,71.6525,0,U,62515,999,1330,.12149E-4,.1111E-4,0
STARLINK-11510 [DTC],2025-004F,2025-03-26T04:17:12.692832,15.70829646,.0001661,43.0033,11.7243,280.8849,79.1832,0,U,62516,999,1331,.53088E-6,-.381E-5,0
STARLINK-11512 [DTC],2025-004G,2025-03-26T03:08:23.651520,15.70839151,.0001417,43.0011,11.3382,260.3650,99.7058,0,U,62517,999,1330,.12513E-4,.1157E-4,0
STARLINK-11450 [DTC],2025-004H,2025-03-25T20:16:28.318080,15.70820687,.0000924,43.0027,13.5087,269.5873,90.4889,0,U,62518,999,1325,.42652E-4,.5024E-4,0
STARLINK-11507 [DTC],2025-004J,2025-03-26T04:01:54.830208,15.70831228,.0001462,43.0020,11.6341,256.3597,103.7108,0,U,62519,999,1314,.2196E-4,.2369E-4,0
STARLINK-11482 [DTC],2025-004K,2025-03-26T03:15:59.714784,15.70869947,.000167,43.0014,11.3811,274.8983,85.1694,0,U,62520,999,1330,.3753E-4,.4375E-4,0
STARLINK-11528 [DTC],2025-004L,2025-03-25T19:15:29.691072,15.70830571,.0001608,43.0003,14.0625,296.2291,63.8411,0,U,62521,999,1233,.19433E-4,.2045E-4,0
STARLINK-11516 [DTC],2025-004M,2025-03-26T03:38:59.903808,15.70814319,.0001121,43.0024,11.5093,295.8729,64.2023,0,U,62522,999,1302,-.31696E-4,-.4508E-4,0
STARLINK-11527 [DTC],2025-004N,2025-03-26T01:52:07.637952,15.70835495,.0001571,42.9996,11.8056,259.2592,100.8099,0,U,62523,999,1329,.10584E-4,.909E-5,0
STARLINK-32748,2025-004P,2025-03-26T04:00:01.999584,15.29672468,.0001418,42.9998,27.9786,280.9564,255.6296,0,U,62524,999,1297,-.39334E-1,-.1058727E-1,0
STARLINK-32777,2025-004Q,2025-03-26T04:10:36.841728,15.27961876,.000195,43.0013,28.4604,285.9622,74.1015,0,U,62525,999,1312,-.19333E-2,-.53702E-3,0
STARLINK-32741,2025-004R,2025-03-26T04:00:01.999584,15.35297732,.0001647,43.0010,27.4370,265.6084,135.9952,0,U,62526,999,1313,-.14034E-2,-.49121E-3,0
STARLINK-32754,2025-004S,2025-03-26T04:00:01.999584,15.27666837,.0001879,43.0004,28.1709,248.3383,206.7937,0,U,62527,999,1312,-.53211E-2,-.14426E-2,0
STARLINK-32786,2025-004T,2025-03-26T04:00:01.999584,15.30189193,.0001207,43.0001,27.8357,281.7343,313.4738,0,U,62528,999,1313,-.38574E-1,-.1055373E-1,0
STARLINK-32789,2025-004U,2025-03-26T04:00:01.999584,15.27595603,.0002002,43.0011,28.2569,255.4003,164.4644,0,U,62529,999,1312,-.25263E-2,-.69171E-3,0
STARLINK-32791,2025-004V,2025-03-26T03:26:02.950944,15.28391597,.0002252,43.0002,28.2136,284.4987,75.5615,0,U,62530,999,1312,-.10302E-3,-.317E-4,0
STARLINK-32785,2025-004W,2025-03-25T22:00:00.999936,15.28332373,.0001406,43.0014,29.7782,257.4706,179.7709,0,U,62531,999,580,.19669E-2,.55538E-3,0
STARLINK-11538 [DTC],2025-006A,2025-03-25T16:46:56.813088,15.77863173,.0002099,43.0025,84.5418,257.8689,102.1946,0,U,62554,999,1170,.2542E-5,-.57E-6,0
STARLINK-11534 [DTC],2025-006B,2025-03-25T16:39:54.937440,15.77864582,.000223,42.9995,84.5024,267.1578,92.9037,0,U,62555,999,1170,.13013E-4,.1766E-4,0
STARLINK-11515 [DTC],2025-006C,2025-03-25T16:32:53.863584,15.77854443,.0001805,43.0002,84.4607,288.0591,72.0082,0,U,62556,999,1170,.78411E-5,.865E-5,0
STARLINK-11478 [DTC],2025-006D,2025-03-26T00:01:37.268256,15.77878988,.0001519,43.0014,82.4937,258.6115,101.4584,0,U,62557,999,1283,-.17063E-4,-.347E-4,0
